NORAD_CAT_ID,OBJECT_NAME,OBJECT_TYPE,EPOCH,MEAN_MOTION,ECCENTRICITY,INCLINATION,RA_OF_ASC_NODE,ARG_OF_PERICENTER,MEAN_ANOMALY,BSTAR,MEAN_MOTION_DOT,MEAN_MOTION_DDOT,TLE_LINE0,TLE_LINE1,TLE_LINE2,SEMIMAJOR_AXIS,PERIOD,APOGEE,PERIGEE,DECAYED
54075.0,STARLINK-5212,PAYLOAD,2023-01-18 20:48:52,15.08852554,0.0001733,53.2188,82.9256,85.1415,274.9776,-3.014e-05,-7.68e-06,0.0,0 STARLINK-5212,1 54075U 22136AA  23018.86727995 -.00000768  00000-0 -30140-4 0  9997,2 54075  53.2188  82.9256 0001733  85.1415 274.9776 15.08852554 14415,6917.842,95.437,540.906,538.508,0.0
54075.0,STARLINK-5212,PAYLOAD,2023-01-19 04:45:49,15.08825903,0.0001278,53.2209,81.4401,104.9578,255.1556,0.00025222,3.727e-05,0.0,0 STARLINK-5212,1 54075U 22136AA  23019.19849328  .00003727  00000-0  25222-3 0  9999,2 54075  53.2209  81.4401 0001278 104.9578 255.1556 15.08825903 14469,6917.923000000001,95.438,540.673,538.904,0.0
54075.0,STARLINK-5212,PAYLOAD,2023-01-19 11:07:22,15.08838584,9.22e-05,53.2191,80.2493,94.4241,265.6856,0.00017841,2.553e-05,0.0,0 STARLINK-5212,1 54075U 22136AA  23019.46344997  .00002553  00000-0  17841-3 0  9995,2 54075  53.2191  80.2493 0000922  94.4241 265.6856 15.08838584 14505,6917.885,95.438,540.388,539.112,0.0
54075.0,STARLINK-5212,PAYLOAD,2023-01-20 10:58:09,15.08844407,0.0001455,53.2186,75.7897,87.5334,272.5825,6.1773e-06,-1.9e-06,0.0,0 STARLINK-5212,1 54075U 22136AA  23020.45705179 -.00000190  00000-0  61773-5 0  9990,2 54075  53.2186  75.7897 0001455  87.5334 272.5825 15.08844407 14171,6917.866999999999,95.437,540.738,538.725,0.0
54075.0,STARLINK-5212,PAYLOAD,2023-01-20 20:30:27,15.08861704,0.0001153,53.2186,73.998,69.457,290.6546,-0.00030807,-5.19e-05,0.0,0 STARLINK-5212,1 54075U 22136AA  23020.85448250 -.00005190  00000-0 -30807-3 0  9996,2 54075  53.2186  73.9980 0001153  69.4570 290.6546 15.08861704 14710,6917.814,95.436,540.477,538.881,0.0
54075.0,STARLINK-5212,PAYLOAD,2023-01-21 04:27:24,15.08829609,0.0001004,53.2191,72.5189,94.3252,265.7855,4.1425e-05,3.71e-06,0.0,0 STARLINK-5212,1 54075U 22136AA  23021.18569790  .00000371  00000-0  41425-4 0  9999,2 54075  53.2191  72.5189 0001004  94.3252 265.7855 15.08829609 14760,6917.911999999999,95.438,540.472,539.0830000000001,0.0
54075.0,STARLINK-5212,PAYLOAD,2023-01-21 10:48:55,15.08846001,0.0001274999999999,53.2192,71.3281,90.2637,269.8502,0.00011162,1.489e-05,0.0,0 STARLINK-5212,1 54075U 22136AA  23021.45064771  .00001489  00000-0  11162-3 0  9993,2 54075  53.2192  71.3281 0001275  90.2637 269.8502 15.08846001 14807,6917.861999999999,95.437,540.609,538.845,0.0
54075.0,STARLINK-5212,PAYLOAD,2023-01-22 12:15:05,15.08853563,0.0001042,53.2178,66.5673,96.7323,263.3788,9.8542e-05,1.281e-05,0.0,0 STARLINK-5212,1 54075U 22136AA  23022.51048097  .00001281  00000-0  98542-4 0  9992,2 54075  53.2178  66.5673 0001042  96.7323 263.3788 15.08853563 14960,6917.839,95.437,540.425,538.9830000000001,0.0
54075.0,STARLINK-5212,PAYLOAD,2023-01-23 02:33:35,15.0883024,0.0001618,53.2185,63.8944,76.0554,284.0618,4.4627e-05,4.22e-06,0.0,0 STARLINK-5212,1 54075U 22136AA  23023.10665907  .00000422  00000-0  44627-4 0  9994,2 54075  53.2185  63.8944 0001618  76.0554 284.0618 15.08830240 15055,6917.91,95.438,540.895,538.656,0.0
54075.0,STARLINK-5212,PAYLOAD,2023-01-23 12:05:53,15.08839009,0.0001373,53.2168,62.109,81.8604,278.2544,4.4997e-05,4.28e-06,0.0,0 STARLINK-5212,1 54075U 22136AA  23023.50409448  .00000428  00000-0  44997-4 0  9990,2 54075  53.2168  62.1090 0001373  81.8604 278.2544 15.08839009 15110,6917.883000000001,95.438,540.698,538.799,0.0
54075.0,STARLINK-5212,PAYLOAD,2023-01-24 11:56:40,15.08852648,0.0001127999999999,53.2177,57.6469,90.3999,269.7122,0.00020342,2.952e-05,0.0,0 STARLINK-5212,1 54075U 22136AA  23024.49768826  .00002952  00000-0  20342-3 0  9998,2 54075  53.2177  57.6469 0001128  90.3999 269.7122 15.08852648 15266,6917.842,95.437,540.487,538.9259999999999,0.0
54075.0,STARLINK-5212,PAYLOAD,2023-01-25 05:25:55,15.08833213,0.000164,53.217,54.3721,131.3022,228.8112,0.00019969,2.891e-05,0.0,0 STARLINK-5212,1 54075U 22136AA  23025.22633928  .00002891  00000-0  19969-3 0  9999,2 54075  53.2170  54.3721 0001640 131.3022 228.8112 15.08833213 15370,6917.901,95.438,540.901,538.632,0.0
54075.0,STARLINK-5212,PAYLOAD,2023-01-25 11:47:28,15.08845149,0.0001071,53.2172,53.1882,89.2855,270.826,0.00023616,3.473e-05,0.0,0 STARLINK-5212,1 54075U 22136AA  23025.49129657  .00003473  00000-0  23616-3 0  9998,2 54075  53.2172  53.1882 0001071  89.2855 270.8260 15.08845149 14933,6917.865,95.437,540.471,538.989,0.0
54075.0,STARLINK-5212,PAYLOAD,2023-01-26 06:52:05,15.08847022,0.0001072,53.2173,49.6201,93.9644,266.1471,0.00027991,4.171e-05,0.0,0 STARLINK-5212,1 54075U 22136AA  23026.28617694  .00004171  00000-0  27991-3 0  9995,2 54075  53.2173  49.6201 0001072  93.9644 266.1471 15.08847022 15056,6917.859,95.437,540.466,538.982,0.0
54075.0,STARLINK-5212,PAYLOAD,2023-01-26 21:10:34,15.08843074,0.0001056,53.2174,46.9444,89.6588,270.4525,0.00023305,3.423e-05,0.0,0 STARLINK-5212,1 54075U 22136AA  23026.88233885  .00003423  00000-0  23305-3 0  9991,2 54075  53.2174  46.9444 0001056  89.6588 270.4525 15.08843074 15621,6917.871,95.437,540.467,539.005,0.0
54075.0,STARLINK-5212,PAYLOAD,2023-01-27 09:53:38,15.08847596,0.0001002999999999,53.2178,44.5657,88.7668,271.3439,0.0001936,2.795e-05,0.0,0 STARLINK-5212,1 54075U 22136AA  23027.41225564  .00002795  00000-0  19360-3 0  9993,2 54075  53.2178  44.5657 0001003  88.7668 271.3439 15.08847596 15229,6917.857,95.437,540.4159999999999,539.028,0.0
54075.0,STARLINK-5212,PAYLOAD,2023-01-28 04:58:16,15.08837165,0.0001129,53.2177,40.9961,104.6237,255.488,1.7548e-05,-9e-08,0.0,0 STARLINK-5212,1 54075U 22136AA  23028.20714013 -.00000009  00000-0  17548-4 0  9997,2 54075  53.2177  40.9961 0001129 104.6237 255.4880 15.08837165 15825,6917.889,95.438,540.535,538.9730000000001,0.0
54075.0,STARLINK-5212,PAYLOAD,2023-01-28 08:09:02,15.08842668,0.0001091,53.2177,40.4017,99.9533,260.1582,-3.7021e-05,-8.77e-06,0.0,0 STARLINK-5212,1 54075U 22136AA  23028.33961725 -.00000877  00000-0 -37021-4 0  9997,2 54075  53.2177  40.4017 0001091  99.9533 260.1582 15.08842668 15360,6917.872,95.437,540.492,538.982,0.0
54075.0,STARLINK-5212,PAYLOAD,2023-01-28 19:16:45,15.08838966,0.0001055,53.2189,38.3205,101.8341,258.2769,0.00010418,1.371e-05,0.0,0 STARLINK-5212,1 54075U 22136AA  23028.80330140  .00001371  00000-0  10418-3 0  9998,2 54075  53.2189  38.3205 0001055 101.8341 258.2769 15.08838966 15437,6917.884,95.438,540.478,539.019,0.0
54075.0,STARLINK-5212,PAYLOAD,2023-01-29 09:35:12,15.08848791,0.0001073,53.2186,35.6439,107.8212,252.2897,0.00014339,1.996e-05,0.0,0 STARLINK-5212,1 54075U 22136AA  23029.39945359  .00001996  00000-0  14339-3 0  9996,2 54075  53.2186  35.6439 0001073 107.8212 252.2897 15.08848791 16003,6917.854,95.437,540.461,538.976,0.0
54075.0,STARLINK-5212,PAYLOAD,2023-01-30 06:15:14,15.08835242,0.0001212,53.219,31.7783,94.6265,265.4866,6.5667e-05,7.57e-06,0.0,0 STARLINK-5212,1 54075U 22136AA  23030.26058629  .00000757  00000-0  65667-4 0  9994,2 54075  53.2190  31.7783 0001212  94.6265 265.4866 15.08835242 16136,6917.895,95.438,540.598,538.921,0.0
54075.0,STARLINK-5212,PAYLOAD,2023-01-30 09:26:00,15.08847798,0.0001218,53.219,31.1839,93.976,266.1371,-6.3455e-05,-1.298e-05,0.0,0 STARLINK-5212,1 54075U 22136AA  23030.39306016 -.00001298  00000-0 -63455-4 0  9990,2 54075  53.2190  31.1839 0001218  93.9760 266.1371 15.08847798 16150,6917.857,95.437,540.564,538.879,0.0
54075.0,STARLINK-5212,PAYLOAD,2023-01-31 06:06:01,15.08844495,0.0001264,53.2186,27.3175,91.7771,268.3366,0.00010702,1.416e-05,0.0,0 STARLINK-5212,1 54075U 22136AA  23031.25417927  .00001416  00000-0  10702-3 0  9996,2 54075  53.2186  27.3175 0001264  91.7771 268.3366 15.08844495 15804,6917.867,95.437,540.606,538.857,0.0
54075.0,STARLINK-5212,PAYLOAD,2023-02-01 05:56:47,15.08845624,0.000133,53.2187,22.8578,89.679,270.4354,0.00015117,2.119e-05,0.0,0 STARLINK-5212,1 54075U 22136AA  23032.24777639  .00002119  00000-0  15117-3 0  9991,2 54075  53.2187  22.8578 0001330  89.6790 270.4354 15.08845624 16439,6917.863,95.437,540.648,538.808,0.0
54075.0,STARLINK-5212,PAYLOAD,2023-02-01 09:07:33,15.08847947,0.000134,53.2183,22.2623,92.2334,267.8811,0.00016839,2.394e-05,0.0,0 STARLINK-5212,1 54075U 22136AA  23032.38025419  .00002394  00000-0  16839-3 0  9995,2 54075  53.2183  22.2623 0001340  92.2334 267.8811 15.08847947 15971,6917.856,95.437,540.648,538.794,0.0
54075.0,STARLINK-5212,PAYLOAD,2023-02-02 02:36:49,15.08832233,0.0001371,53.2176,18.9907,95.5805,264.5344,-7.3078e-06,-4.04e-06,0.0,0 STARLINK-5212,1 54075U 22136AA  23033.10890967 -.00000404  00000-0 -73078-5 0  9996,2 54075  53.2176  18.9907 0001371  95.5805 264.5344 15.08832233 16566,6917.904,95.438,540.718,538.821,0.0
54075.0,STARLINK-5212,PAYLOAD,2023-02-02 05:47:35,15.08836282,0.000132,53.2192,18.3991,87.3728,272.7415,2.861e-05,1.67e-06,0.0,0 STARLINK-5212,1 54075U 22136AA  23033.24138783  .00000167  00000-0  28610-4 0  9997,2 54075  53.2192  18.3991 0001320  87.3728 272.7415 15.08836282 16106,6917.892,95.438,540.67,538.844,0.0
54075.0,STARLINK-5212,PAYLOAD,2023-02-02 23:16:49,15.08841834,0.0001393,53.2187,15.1276,91.1951,268.9201,8.7865e-05,1.111e-05,0.0,0 STARLINK-5212,1 54075U 22136AA  23033.97002310  .00001111  00000-0  87865-4 0  9990,2 54075  53.2187  15.1276 0001393  91.1951 268.9201 15.08841834 16695,6917.875,95.437,540.703,538.776,0.0
54075.0,STARLINK-5212,PAYLOAD,2023-02-03 08:49:08,15.08854507,0.000139,53.2182,13.343,87.5098,272.6053,0.0003911,5.944e-05,0.0,0 STARLINK-5212,1 54075U 22136AA  23034.36745871  .00005944  00000-0  39110-3 0  9997,2 54075  53.2182  13.3430 0001390  87.5098 272.6053 15.08854507 16755,6917.836,95.437,540.663,538.739,0.0
54075.0,STARLINK-5212,PAYLOAD,2023-02-04 08:39:55,15.08845447,0.0001314,53.2183,8.8826,98.4964,261.6177,0.00048318,7.411e-05,0.0,0 STARLINK-5212,1 54075U 22136AA  23035.36106420  .00007411  00000-0  48318-3 0  9990,2 54075  53.2183   8.8826 0001314  98.4964 261.6177 15.08845447 16908,6917.864,95.437,540.638,538.82,0.0
